#cP2023  1 19  0  0  0.00000000      96 ORBIT IGS20 HLM  IGS
## 2245 345600.00000000   900.00000000 59963 0.0000000000000
+   31   G01G02G03G04G05G06G07G08G09G10G11G12G13G14G15G16G17
+        G18G19G20G21G22G23G24G25G26G27G29G30G31G32  0  0  0
+          0  0  0  0  0  0  0  0  0  0  0  0  0  0  0  0  0
+          0  0  0  0  0  0  0  0  0  0  0  0  0  0  0  0  0
+          0  0  0  0  0  0  0  0  0  0  0  0  0  0  0  0  0
++         2  2  2  2  2  2  2  3  2  2  2  2  2  2  2  2  2
++         2  2  2  2  2  2  2  2  2  3  2  2  2  2  0  0  0
++         0  0  0  0  0  0  0  0  0  0  0  0  0  0  0  0  0
++         0  0  0  0  0  0  0  0  0  0  0  0  0  0  0  0  0
++         0  0  0  0  0  0  0  0  0  0  0  0  0  0  0  0  0
%c G  cc GPS ccc cccc cccc cccc cccc ccccc ccccc ccccc ccccc
%c cc cc ccc ccc cccc cccc cccc cccc ccccc ccccc ccccc ccccc
%f  1.2500000  1.025000000  0.00000000000  0.000000000000000
%f  0.0000000  0.000000000  0.00000000000  0.000000000000000
%i    0    0    0    0      0      0      0      0         0
%i    0    0    0    0      0      0      0      0         0
/* RAPID ORBIT COMBINATION FROM WEIGHTED AVERAGE OF:        
/* cod emr esa gfz grg jpl ngs sio usn whu                  
/* REFERENCED TO IGS TIME (IGST) AND TO WEIGHTED MEAN POLE: 
/* PCV:IGS20_2233 OL/AL:FES2014b NONE     Y  ORB:CMB CLK:CMB
*  2023  1 19 16 30  0.00000000
PG01 -18467.720966 -13909.994976 -13695.197419    222.474519  6  7  5  96       
PG02  20939.174714  11508.795271  11985.235805   -626.333723  1  5  7  75       
PG03 -12597.902385 -21789.152387   8538.735393   -371.172633  6  8  3  94       
PG04 -10175.275549 -11281.673669  21789.085918    -45.474069  3  7  8  95       
PG05   4794.318800  25405.890258   5632.434985   -112.597226  3  6  4  77       
PG06 -18897.339884   7185.424976  17341.030877    560.924657  7  6  3  82       
PG07 -25921.751003  -6891.720600   1016.475119    256.134800  4  6  7  79       
PG08    -26.785789 -19164.857815 -18270.799739   -104.348136  4 10 10 117       
PG09 -18200.643327   -122.453041  19282.472345   -233.670945  6  7  5  90       
PG10  13365.144789  -6596.680471 -21793.625983    -21.067969  7  9  5  96       
PG11  -6034.420166  13975.712378  21773.858073    -82.530102  5  9  6  91       
PG12  10353.199954  23373.777493   7123.209516   -330.011501  6  6  5  75       
PG13  -8817.191929  20225.812391 -14821.088560    462.046957  4  5  3 105       
PG14 -14961.548236   3835.837557 -21601.875845    -46.091562  4  7  6 111       
PG15   3018.896033  19288.439008 -18338.269145      6.004812  2  6  6 110       
PG16    523.618130 -24943.136111   8101.197147   -523.344581  6  7  6  96       
PG17 -21751.944762  11418.784800  -9778.690570    694.428163  3  4  4  98       
PG18  26081.203650   4629.723052  -2820.225601   -105.511271  5  8  3  69       
PG19 -20015.740643  17232.069425    -19.574318    266.247848  6  7  6  91       
PG20  -2409.590903  21175.851597  16013.809766    456.059982  5  7  4  80       
PG21 -11837.636260 -14714.558372 -18393.323183    153.549020  5  4  5 105       
PG22  17457.040589 -19562.124164   4031.444449    409.259043  5  5  5  78       
PG23  16413.707103   5963.258949 -20052.595770      2.979000  7  9  7  81       
PG24  15341.907158  14638.163606 -16590.033283    -36.944361  3  7  5  75       
PG25  15578.755001  16104.754946  14165.895387    412.708080  4  5  4  84       
PG26   7820.915093 -17436.521865  18196.962498    240.530541  4  5  6 101       
PG27  10318.008101 -21865.863294 -10727.539434    123.128724  7 12 11 113       
PG29  16256.343561   3912.184665  20609.572088   -581.332561  4  6  4  95       
PG30 -24163.972560   2398.197520 -10966.015343   -532.844193  5  5  6  95       
PG31  17954.663563  -8362.038026  17741.588670   -206.790268  3  6  4  76       
PG32  20710.521524 -14409.500827  -7802.287942   -369.185725  6  4  7  86       
*  2023  1 19 16 45  0.00000000
PG01 -16858.228692 -13666.468083 -15862.568176    222.470406  7  7  5 100       
PG02  19507.670618  11532.782474  14297.821446   -626.331602  1  5  6  76       
PG03 -12683.830696 -22638.279839   5815.004225   -371.170348  6  9  4 109       
PG04  -8458.183586 -13066.855462  21514.425165    -45.467057  2  7  8  98       
PG05   4268.744516  24727.686155   8349.575068   -112.598675  2  7  4  86       
PG06 -20688.089050   6699.804044  15380.155408    560.929831  6  6  3 102       
PG07 -25651.557114  -7086.591873   3804.845379    256.129492  3  6  7  96       
PG08   1383.992491 -20588.738159 -16551.134803   -104.350233  4 11 11 127       
PG09 -16810.708647  -1940.922771  20405.445549   -233.665041  6  7  5  94       
PG10  14200.216494  -4205.821535 -21884.927894    -21.069277  7  9  6  97       
PG11  -8416.037909  13335.193983  21378.537102    -82.538290  5  9  6  92       
PG12  10308.316401  24095.743780   4362.792773   -330.015455  6  7  5  62       
PG13 -10108.477705  21096.323215 -12570.207957    462.052460  4  4  3  83       
PG14 -15658.891823   1471.455179 -21408.165053    -46.084436  4  7  6 108       
PG15   1780.907972  20801.710060 -16710.584174      6.007626  2  5  6 102       
PG16   1036.471915 -23908.056249  10708.388964   -523.343403  5  7  6  94       
PG17 -20956.870433  10353.394111 -12264.783686    694.430457  4  4  5  73       
PG18  26191.032301   4868.156956     45.326986   -105.525058  5  8  3  77       
PG19 -20068.297132  16962.754205  -2913.412694    266.252682  6  7  6  82       
PG20  -3467.780791  19560.367539  17761.817666    456.058200  5  7  4  85       
PG21  -9570.211798 -14552.457398 -19680.422969    153.549351  5  6  5 119       
PG22  17819.774765 -19550.415538   1182.595359    409.266449  5  5  6  76       
PG23  17092.085531   8070.262044 -18716.436984      2.980091  6  9  6  73       
PG24  13410.524780  14587.910533 -18223.080175    -36.959371  3  7  6  92       
PG25  15887.860168  17617.037258  11916.359969    412.711104  3  5  4  91       
PG26   8813.381947 -15470.597943  19498.522296    240.531010  3  5  6 104       
PG27  11189.495986 -22511.653791  -8112.761027    123.120423  7 11 11 140       
PG29  14574.648925   5638.487706  21441.861865   -581.334217  4  6  4  92       
PG30 -25204.143448   1896.603133  -8483.573106   -532.843326  4  5  6  92       
PG31  19819.667666  -7791.165533  15984.599408   -206.790987  3  6  4  89       
PG32  20204.921673 -13435.588837 -10400.990494   -369.196784  6  4  7  91       
*  2023  1 19 17  0  0.00000000
PG01 -15012.891598 -13481.646245 -17766.599411    222.466307  7  7  5 113       
PG02  17839.743886  11616.572927  16370.790657   -626.329479  2  4  6  90       
PG03 -12698.586143 -23189.514671   2991.540203   -371.168012  6  9  5  95       
PG04  -6869.507045 -14900.261529  20869.345803    -45.460023  2  7  8  89       
PG05   3581.744609  23803.927424  10921.138855   -112.600336  1  7  5  77       
PG06 -22269.269876   6350.156058  13156.824844    560.934946  6  6  4  81       
PG07 -25088.839829  -7248.931878   6530.084908    256.123369  3  7  8  83       
PG08   2595.850321 -21914.489526 -14543.191440   -104.351562  5 12 11 115       
PG09 -15451.062235  -3914.815405  21175.281755   -233.659076  6  7  6  80       
PG10  15158.163746  -1877.307436 -21593.879981    -21.070504  7  9  6  72       
PG11 -10764.032156  12833.286111  20615.563819    -82.546379  5  9  6  93       
PG12  10205.383091  24516.270680   1527.332978   -330.019954  6  7  6  73       
PG13 -11162.357172  21848.059153 -10102.917568    462.058167  4  5  2  68       
PG14 -16459.538250   -813.493400 -20846.270184    -46.077409  4  7  7  97       
PG15    712.231297  22204.881374 -14801.157266      6.010625  2  5  6  87       
PG16   1687.628710 -22624.019818  13123.962868   -523.342277  5  6  5  98       
PG17 -20040.571624   9038.382528 -14535.836844    694.432767  5  5  5  81       
PG18  25993.836597   5050.131788   2910.107606   -105.538844  5  8  2  84       
PG19 -19907.104005  16462.875757  -5756.432236    266.256744  6  7  6  91       
PG20  -4700.575019  17845.917740  19207.174935    456.055988  5  6  4  91       
PG21  -7159.868390 -14501.612712 -20617.960719    153.549414  5  6  5 112       
PG22  17965.405684 -19316.251949  -1686.753121    409.273315  5  5  6  89       
PG23  17814.933081   9981.482309 -17059.650677      2.981181  6  9  6  81       
PG24  11313.981366  14623.750048 -19554.936026    -36.974247  4  7  6  81       
PG25  16172.376186  18862.138416   9461.426018    412.714156  2  5  4  96       
PG26   9951.907376 -13440.007469  20458.620066    240.531460  3  5  6 109       
PG27  11841.187312 -22960.100439  -5356.091045    123.111909  8 10 10 116       
PG29  12940.213794   7509.549942  21904.049983   -581.336698  4  6  5 101       
PG30 -25982.995548   1490.395651  -5856.753762   -532.842466  4  5  6  75       
PG31  21497.340592  -7353.398167  13954.585402   -206.791764  3  6  5  87       
PG32  19576.307777 -12209.181367 -12817.401037   -369.207858  7  5  7  90       
EOF
